QIANFAN-1               
1 60379U 24140A   25358.83922053  .00000123  00000+0  17178-3 0  9993
2 60379  88.9772 298.0285 0017071 173.8674 186.2690 13.50980172 68983
QIANFAN-2               
1 60380U 24140B   25358.86817717  .00000134  00000+0  18802-3 0  9995
2 60380  88.9758 297.8632 0013305 144.1414 216.0633 13.50983905 69045
QIANFAN-3               
1 60381U 24140C   25358.87633824  .00000123  00000+0  17178-3 0  9995
2 60381  88.9751 297.9940 0013998 156.9736 203.2045 13.50984440 68957
QIANFAN-4               
1 60382U 24140D   25358.85155358  .00000116  00000+0  16061-3 0  9997
2 60382  88.9776 297.8973 0013445 146.8143 213.3854 13.50980081 69078
QIANFAN-5               
1 60383U 24140E   25358.90104766  .00000140  00000+0  19819-3 0  9992
2 60383  88.9750 298.0169 0014896 168.7786 191.3701 13.50982172 68942
QIANFAN-6               
1 60384U 24140F   25358.84757125  .00000109  00000+0  15050-3 0  9997
2 60384  88.9777 297.7719 0013376 152.6326 207.5532 13.50982414 69136
QIANFAN-7               
1 60385U 24140G   25358.87017324  .00000775  00000+0  30843-3 0  9997
2 60385  88.9792 292.2973 0015792   9.2491 350.8991 14.27666256 72122
QIANFAN-8               
1 60386U 24140H   25358.85585459  .00000118  00000+0  16396-3 0  9993
2 60386  88.9779 298.0087 0016736 156.4901 203.7018 13.50980298 68983
