<?xml version="1.0" encoding="UTF-8"?>
<ndm xmlns:xsi="http://www.w3.org/2001/XMLSchema-instance" xsi:noNamespaceSchemaLocation="https://sanaregistry.org/r/ndmxml_unqualified/ndmxml-2.0.0-master-2.0.xsd">
<omm id="CCSDS_OMM_VERS" version="2.0">
<header><CREATION_DATE/><ORIGINATOR/></header><body><segment><metadata><OBJECT_NAME>QIANFAN-1</OBJECT_NAME><OBJECT_ID>2024-140A</OBJECT_ID><CENTER_NAME>EARTH</CENTER_NAME><REF_FRAME>TEME</REF_FRAME><TIME_SYSTEM>UTC</TIME_SYSTEM><MEAN_ELEMENT_THEORY>SGP4</MEAN_ELEMENT_THEORY></metadata><data><meanElements><EPOCH>2025-12-24T20:08:28.653792</EPOCH><MEAN_MOTION>13.50980172</MEAN_MOTION><ECCENTRICITY>.00170712</ECCENTRICITY><INCLINATION>88.9772</INCLINATION><RA_OF_ASC_NODE>298.0285</RA_OF_ASC_NODE><ARG_OF_PERICENTER>173.8674</ARG_OF_PERICENTER><MEAN_ANOMALY>186.2690</MEAN_ANOMALY></meanElements><tleParameters><EPHEMERIS_TYPE>0</EPHEMERIS_TYPE><CLASSIFICATION_TYPE>U</CLASSIFICATION_TYPE><NORAD_CAT_ID>60379</NORAD_CAT_ID><ELEMENT_SET_NO>999</ELEMENT_SET_NO><REV_AT_EPOCH>6898</REV_AT_EPOCH><BSTAR>.17178203E-3</BSTAR><MEAN_MOTION_DOT>.123E-5</MEAN_MOTION_DOT><MEAN_MOTION_DDOT>0</MEAN_MOTION_DDOT></tleParameters></data></segment></body></omm>
<omm id="CCSDS_OMM_VERS" version="2.0">
<header><CREATION_DATE/><ORIGINATOR/></header><body><segment><metadata><OBJECT_NAME>QIANFAN-2</OBJECT_NAME><OBJECT_ID>2024-140B</OBJECT_ID><CENTER_NAME>EARTH</CENTER_NAME><REF_FRAME>TEME</REF_FRAME><TIME_SYSTEM>UTC</TIME_SYSTEM><MEAN_ELEMENT_THEORY>SGP4</MEAN_ELEMENT_THEORY></metadata><data><meanElements><EPOCH>2025-12-24T20:50:10.507488</EPOCH><MEAN_MOTION>13.50983905</MEAN_MOTION><ECCENTRICITY>.00133057</ECCENTRICITY><INCLINATION>88.9758</INCLINATION><RA_OF_ASC_NODE>297.8632</RA_OF_ASC_NODE><ARG_OF_PERICENTER>144.1414</ARG_OF_PERICENTER><MEAN_ANOMALY>216.0633</MEAN_ANOMALY></meanElements><tleParameters><EPHEMERIS_TYPE>0</EPHEMERIS_TYPE><CLASSIFICATION_TYPE>U</CLASSIFICATION_TYPE><NORAD_CAT_ID>60380</NORAD_CAT_ID><ELEMENT_SET_NO>999</ELEMENT_SET_NO><REV_AT_EPOCH>6904</REV_AT_EPOCH><BSTAR>.1880223E-3</BSTAR><MEAN_MOTION_DOT>.134E-5</MEAN_MOTION_DOT><MEAN_MOTION_DDOT>0</MEAN_MOTION_DDOT></tleParameters></data></segment></body></omm>
<omm id="CCSDS_OMM_VERS" version="2.0">
<header><CREATION_DATE/><ORIGINATOR/></header><body><segment><metadata><OBJECT_NAME>QIANFAN-3</OBJECT_NAME><OBJECT_ID>2024-140C</OBJECT_ID><CENTER_NAME>EARTH</CENTER_NAME><REF_FRAME>TEME</REF_FRAME><TIME_SYSTEM>UTC</TIME_SYSTEM><MEAN_ELEMENT_THEORY>SGP4</MEAN_ELEMENT_THEORY></metadata><data><meanElements><EPOCH>2025-12-24T21:01:55.623936</EPOCH><MEAN_MOTION>13.50984440</MEAN_MOTION><ECCENTRICITY>.0013998</ECCENTRICITY><INCLINATION>88.9751</INCLINATION><RA_OF_ASC_NODE>297.9940</RA_OF_ASC_NODE><ARG_OF_PERICENTER>156.9736</ARG_OF_PERICENTER><MEAN_ANOMALY>203.2045</MEAN_ANOMALY></meanElements><tleParameters><EPHEMERIS_TYPE>0</EPHEMERIS_TYPE><CLASSIFICATION_TYPE>U</CLASSIFICATION_TYPE><NORAD_CAT_ID>60381</NORAD_CAT_ID><ELEMENT_SET_NO>999</ELEMENT_SET_NO><REV_AT_EPOCH>6895</REV_AT_EPOCH><BSTAR>.17178221E-3</BSTAR><MEAN_MOTION_DOT>.123E-5</MEAN_MOTION_DOT><MEAN_MOTION_DDOT>0</MEAN_MOTION_DDOT></tleParameters></data></segment></body></omm>
<omm id="CCSDS_OMM_VERS" version="2.0">
<header><CREATION_DATE/><ORIGINATOR/></header><body><segment><metadata><OBJECT_NAME>QIANFAN-4</OBJECT_NAME><OBJECT_ID>2024-140D</OBJECT_ID><CENTER_NAME>EARTH</CENTER_NAME><REF_FRAME>TEME</REF_FRAME><TIME_SYSTEM>UTC</TIME_SYSTEM><MEAN_ELEMENT_THEORY>SGP4</MEAN_ELEMENT_THEORY></metadata><data><meanElements><EPOCH>2025-12-24T20:26:14.229312</EPOCH><MEAN_MOTION>13.50980081</MEAN_MOTION><ECCENTRICITY>.00134452</ECCENTRICITY><INCLINATION>88.9776</INCLINATION><RA_OF_ASC_NODE>297.8973</RA_OF_ASC_NODE><ARG_OF_PERICENTER>146.8143</ARG_OF_PERICENTER><MEAN_ANOMALY>213.3854</MEAN_ANOMALY></meanElements><tleParameters><EPHEMERIS_TYPE>0</EPHEMERIS_TYPE><CLASSIFICATION_TYPE>U</CLASSIFICATION_TYPE><NORAD_CAT_ID>60382</NORAD_CAT_ID><ELEMENT_SET_NO>999</ELEMENT_SET_NO><REV_AT_EPOCH>6907</REV_AT_EPOCH><BSTAR>.16060695E-3</BSTAR><MEAN_MOTION_DOT>.116E-5</MEAN_MOTION_DOT><MEAN_MOTION_DDOT>0</MEAN_MOTION_DDOT></tleParameters></data></segment></body></omm>
<omm id="CCSDS_OMM_VERS" version="2.0">
<header><CREATION_DATE/><ORIGINATOR/></header><body><segment><metadata><OBJECT_NAME>QIANFAN-5</OBJECT_NAME><OBJECT_ID>2024-140E</OBJECT_ID><CENTER_NAME>EARTH</CENTER_NAME><REF_FRAME>TEME</REF_FRAME><TIME_SYSTEM>UTC</TIME_SYSTEM><MEAN_ELEMENT_THEORY>SGP4</MEAN_ELEMENT_THEORY></metadata><data><meanElements><EPOCH>2025-12-24T21:37:30.517824</EPOCH><MEAN_MOTION>13.50982172</MEAN_MOTION><ECCENTRICITY>.0014896</ECCENTRICITY><INCLINATION>88.9750</INCLINATION><RA_OF_ASC_NODE>298.0169</RA_OF_ASC_NODE><ARG_OF_PERICENTER>168.7786</ARG_OF_PERICENTER><MEAN_ANOMALY>191.3701</MEAN_ANOMALY></meanElements><tleParameters><EPHEMERIS_TYPE>0</EPHEMERIS_TYPE><CLASSIFICATION_TYPE>U</CLASSIFICATION_TYPE><NORAD_CAT_ID>60383</NORAD_CAT_ID><ELEMENT_SET_NO>999</ELEMENT_SET_NO><REV_AT_EPOCH>6894</REV_AT_EPOCH><BSTAR>.1981871E-3</BSTAR><MEAN_MOTION_DOT>.14E-5</MEAN_MOTION_DOT><MEAN_MOTION_DDOT>0</MEAN_MOTION_DDOT></tleParameters></data></segment></body></omm>
<omm id="CCSDS_OMM_VERS" version="2.0">
<header><CREATION_DATE/><ORIGINATOR/></header><body><segment><metadata><OBJECT_NAME>QIANFAN-6</OBJECT_NAME><OBJECT_ID>2024-140F</OBJECT_ID><CENTER_NAME>EARTH</CENTER_NAME><REF_FRAME>TEME</REF_FRAME><TIME_SYSTEM>UTC</TIME_SYSTEM><MEAN_ELEMENT_THEORY>SGP4</MEAN_ELEMENT_THEORY></metadata><data><meanElements><EPOCH>2025-12-24T20:20:30.156000</EPOCH><MEAN_MOTION>13.50982414</MEAN_MOTION><ECCENTRICITY>.00133761</ECCENTRICITY><INCLINATION>88.9777</INCLINATION><RA_OF_ASC_NODE>297.7719</RA_OF_ASC_NODE><ARG_OF_PERICENTER>152.6326</ARG_OF_PERICENTER><MEAN_ANOMALY>207.5532</MEAN_ANOMALY></meanElements><tleParameters><EPHEMERIS_TYPE>0</EPHEMERIS_TYPE><CLASSIFICATION_TYPE>U</CLASSIFICATION_TYPE><NORAD_CAT_ID>60384</NORAD_CAT_ID><ELEMENT_SET_NO>999</ELEMENT_SET_NO><REV_AT_EPOCH>6913</REV_AT_EPOCH><BSTAR>.15049822E-3</BSTAR><MEAN_MOTION_DOT>.109E-5</MEAN_MOTION_DOT><MEAN_MOTION_DDOT>0</MEAN_MOTION_DDOT></tleParameters></data></segment></body></omm>
<omm id="CCSDS_OMM_VERS" version="2.0">
<header><CREATION_DATE/><ORIGINATOR/></header><body><segment><metadata><OBJECT_NAME>QIANFAN-7</OBJECT_NAME><OBJECT_ID>2024-140G</OBJECT_ID><CENTER_NAME>EARTH</CENTER_NAME><REF_FRAME>TEME</REF_FRAME><TIME_SYSTEM>UTC</TIME_SYSTEM><MEAN_ELEMENT_THEORY>SGP4</MEAN_ELEMENT_THEORY></metadata><data><meanElements><EPOCH>2025-12-24T20:53:02.967936</EPOCH><MEAN_MOTION>14.27666256</MEAN_MOTION><ECCENTRICITY>.00157924</ECCENTRICITY><INCLINATION>88.9792</INCLINATION><RA_OF_ASC_NODE>292.2973</RA_OF_ASC_NODE><ARG_OF_PERICENTER>9.2491</ARG_OF_PERICENTER><MEAN_ANOMALY>350.8991</MEAN_ANOMALY></meanElements><tleParameters><EPHEMERIS_TYPE>0</EPHEMERIS_TYPE><CLASSIFICATION_TYPE>U</CLASSIFICATION_TYPE><NORAD_CAT_ID>60385</NORAD_CAT_ID><ELEMENT_SET_NO>999</ELEMENT_SET_NO><REV_AT_EPOCH>7212</REV_AT_EPOCH><BSTAR>.30843284E-3</BSTAR><MEAN_MOTION_DOT>.775E-5</MEAN_MOTION_DOT><MEAN_MOTION_DDOT>0</MEAN_MOTION_DDOT></tleParameters></data></segment></body></omm>
<omm id="CCSDS_OMM_VERS" version="2.0">
<header><CREATION_DATE/><ORIGINATOR/></header><body><segment><metadata><OBJECT_NAME>QIANFAN-8</OBJECT_NAME><OBJECT_ID>2024-140H</OBJECT_ID><CENTER_NAME>EARTH</CENTER_NAME><REF_FRAME>TEME</REF_FRAME><TIME_SYSTEM>UTC</TIME_SYSTEM><MEAN_ELEMENT_THEORY>SGP4</MEAN_ELEMENT_THEORY></metadata><data><meanElements><EPOCH>2025-12-24T20:32:25.836576</EPOCH><MEAN_MOTION>13.50980298</MEAN_MOTION><ECCENTRICITY>.00167361</ECCENTRICITY><INCLINATION>88.9779</INCLINATION><RA_OF_ASC_NODE>298.0087</RA_OF_ASC_NODE><ARG_OF_PERICENTER>156.4901</ARG_OF_PERICENTER><MEAN_ANOMALY>203.7018</MEAN_ANOMALY></meanElements><tleParameters><EPHEMERIS_TYPE>0</EPHEMERIS_TYPE><CLASSIFICATION_TYPE>U</CLASSIFICATION_TYPE><NORAD_CAT_ID>60386</NORAD_CAT_ID><ELEMENT_SET_NO>999</ELEMENT_SET_NO><REV_AT_EPOCH>6898</REV_AT_EPOCH><BSTAR>.16396315E-3</BSTAR><MEAN_MOTION_DOT>.118E-5</MEAN_MOTION_DOT><MEAN_MOTION_DDOT>0</MEAN_MOTION_DDOT></tleParameters></data></segment></body></omm>

</ndm>
